[{"OBJECT_NAME":"ATLAS CENTAUR 2","OBJECT_ID":"1963-047A","EPOCH":"2026-03-23T18:07:39.497664","MEAN_MOTION":14.12118639,"ECCENTRICITY":0.05474082,"INCLINATION":30.3545,"RA_OF_ASC_NODE":117.0314,"ARG_OF_PERICENTER":204.2567,"MEAN_ANOMALY":153.132,"EPHEMERIS_TYPE":0,"CLASSIFICATION_TYPE":"U","NORAD_CAT_ID":694,"ELEMENT_SET_NO":999,"REV_AT_EPOCH":13361,"BSTAR":0.00024366825,"MEAN_MOTION_DOT":2.107e-5,"MEAN_MOTION_DDOT":0},{"OBJECT_NAME":"THOR AGENA D R/B","OBJECT_ID":"1964-002A","EPOCH":"2026-03-24T07:32:18.328128","MEAN_MOTION":14.34027547,"ECCENTRICITY":0.00323591,"INCLINATION":99.1219,"RA_OF_ASC_NODE":97.4486,"ARG_OF_PERICENTER":214.4741,"MEAN_ANOMALY":145.4343,"EPHEMERIS_TYPE":0,"CLASSIFICATION_TYPE":"U","NORAD_CAT_ID":733,"ELEMENT_SET_NO":999,"REV_AT_EPOCH":24039,"BSTAR":7.6373857e-5,"MEAN_MOTION_DOT":1.66e-6,"MEAN_MOTION_DDOT":0},{"OBJECT_NAME":"SL-3 R/B","OBJECT_ID":"1964-053B","EPOCH":"2026-03-24T06:26:23.015616","MEAN_MOTION":14.61377786,"ECCENTRICITY":0.0080258,"INCLINATION":65.0759,"RA_OF_ASC_NODE":288.4951,"ARG_OF_PERICENTER":287.632,"MEAN_ANOMALY":71.6027,"EPHEMERIS_TYPE":0,"CLASSIFICATION_TYPE":"U","NORAD_CAT_ID":877,"ELEMENT_SET_NO":999,"REV_AT_EPOCH":26892,"BSTAR":5.6518028e-5,"MEAN_MOTION_DOT":1.67e-6,"MEAN_MOTION_DDOT":0},{"OBJECT_NAME":"SL-8 R/B","OBJECT_ID":"1967-045B","EPOCH":"2026-03-24T02:34:38.738784","MEAN_MOTION":14.45634067,"ECCENTRICITY":0.00647344,"INCLINATION":74.012,"RA_OF_ASC_NODE":321.1653,"ARG_OF_PERICENTER":324.2056,"MEAN_ANOMALY":35.4771,"EPHEMERIS_TYPE":0,"CLASSIFICATION_TYPE":"U","NORAD_CAT_ID":2802,"ELEMENT_SET_NO":999,"REV_AT_EPOCH":9110,"BSTAR":9.1334808e-5,"MEAN_MOTION_DOT":3.02e-6,"MEAN_MOTION_DDOT":0},{"OBJECT_NAME":"SL-8 R/B","OBJECT_ID":"1968-040B","EPOCH":"2026-03-24T06:48:42.380640","MEAN_MOTION":15.03348616,"ECCENTRICITY":0.00234544,"INCLINATION":74.0292,"RA_OF_ASC_NODE":283.8697,"ARG_OF_PERICENTER":101.9355,"MEAN_ANOMALY":258.4465,"EPHEMERIS_TYPE":0,"CLASSIFICATION_TYPE":"U","NORAD_CAT_ID":3230,"ELEMENT_SET_NO":999,"REV_AT_EPOCH":9220,"BSTAR":0.0002354234,"MEAN_MOTION_DOT":3.175e-5,"MEAN_MOTION_DDOT":0},{"OBJECT_NAME":"OAO 2","OBJECT_ID":"1968-110A","EPOCH":"2026-03-23T23:52:02.009280","MEAN_MOTION":14.47315575,"ECCENTRICITY":0.00060926,"INCLINATION":34.9926,"RA_OF_ASC_NODE":185.3536,"ARG_OF_PERICENTER":309.0164,"MEAN_ANOMALY":50.9984,"EPHEMERIS_TYPE":0,"CLASSIFICATION_TYPE":"U","NORAD_CAT_ID":3597,"ELEMENT_SET_NO":999,"REV_AT_EPOCH":2117,"BSTAR":6.977789e-5,"MEAN_MOTION_DOT":2.4e-6,"MEAN_MOTION_DDOT":0},{"OBJECT_NAME":"ISIS 1","OBJECT_ID":"1969-009A","EPOCH":"2026-03-24T05:37:10.222176","MEAN_MOTION":11.30417954,"ECCENTRICITY":0.17078715,"INCLINATION":88.4518,"RA_OF_ASC_NODE":153.7218,"ARG_OF_PERICENTER":59.8229,"MEAN_ANOMALY":316.0988,"EPHEMERIS_TYPE":0,"CLASSIFICATION_TYPE":"U","NORAD_CAT_ID":3669,"ELEMENT_SET_NO":999,"REV_AT_EPOCH":35017,"BSTAR":6.970492e-5,"MEAN_MOTION_DOT":1.19e-6,"MEAN_MOTION_DDOT":0},{"OBJECT_NAME":"SERT 2","OBJECT_ID":"1970-009A","EPOCH":"2026-03-24T02:54:10.390176","MEAN_MOTION":13.58731115,"ECCENTRICITY":0.00055239,"INCLINATION":99.2778,"RA_OF_ASC_NODE":25.4262,"ARG_OF_PERICENTER":121.9227,"MEAN_ANOMALY":248.7259,"EPHEMERIS_TYPE":0,"CLASSIFICATION_TYPE":"U","NORAD_CAT_ID":4327,"ELEMENT_SET_NO":999,"REV_AT_EPOCH":78185,"BSTAR":7.6715829e-5,"MEAN_MOTION_DOT":1.5e-7,"MEAN_MOTION_DDOT":0},{"OBJECT_NAME":"SL-3 R/B","OBJECT_ID":"1971-028B","EPOCH":"2026-03-24T04:48:38.436768","MEAN_MOTION":15.62399091,"ECCENTRICITY":0.00139238,"INCLINATION":81.2375,"RA_OF_ASC_NODE":34.0917,"ARG_OF_PERICENTER":223.8745,"MEAN_ANOMALY":136.1404,"EPHEMERIS_TYPE":0,"CLASSIFICATION_TYPE":"U","NORAD_CAT_ID":5118,"ELEMENT_SET_NO":999,"REV_AT_EPOCH":99093,"BSTAR":0.00049083647,"MEAN_MOTION_DOT":0.00043855,"MEAN_MOTION_DDOT":0},{"OBJECT_NAME":"ASTEX 1","OBJECT_ID":"1971-089A","EPOCH":"2026-03-24T04:02:56.190624","MEAN_MOTION":14.50784219,"ECCENTRICITY":0.00169546,"INCLINATION":92.71,"RA_OF_ASC_NODE":156.44,"ARG_OF_PERICENTER":42.6048,"MEAN_ANOMALY":317.647,"EPHEMERIS_TYPE":0,"CLASSIFICATION_TYPE":"U","NORAD_CAT_ID":5560,"ELEMENT_SET_NO":999,"REV_AT_EPOCH":86440,"BSTAR":0.00010898597,"MEAN_MOTION_DOT":4.29e-6,"MEAN_MOTION_DDOT":0},{"OBJECT_NAME":"SL-8 R/B","OBJECT_ID":"1971-119B","EPOCH":"2026-03-24T04:44:23.057376","MEAN_MOTION":14.38155908,"ECCENTRICITY":0.05469005,"INCLINATION":73.886,"RA_OF_ASC_NODE":148.5967,"ARG_OF_PERICENTER":112.1646,"MEAN_ANOMALY":253.8472,"EPHEMERIS_TYPE":0,"CLASSIFICATION_TYPE":"U","NORAD_CAT_ID":5730,"ELEMENT_SET_NO":999,"REV_AT_EPOCH":65757,"BSTAR":0.00037236299,"MEAN_MOTION_DOT":7.109e-5,"MEAN_MOTION_DDOT":0},{"OBJECT_NAME":"OAO 3 (COPERNICUS)","OBJECT_ID":"1972-065A","EPOCH":"2026-03-24T02:48:51.074784","MEAN_MOTION":14.60009073,"ECCENTRICITY":0.00073275,"INCLINATION":35.0048,"RA_OF_ASC_NODE":215.1139,"ARG_OF_PERICENTER":278.5947,"MEAN_ANOMALY":248.0783,"EPHEMERIS_TYPE":0,"CLASSIFICATION_TYPE":"U","NORAD_CAT_ID":6153,"ELEMENT_SET_NO":999,"REV_AT_EPOCH":84830,"BSTAR":7.4989771e-5,"MEAN_MOTION_DOT":3.45e-6,"MEAN_MOTION_DDOT":0},{"OBJECT_NAME":"ATLAS CENTAUR R/B","OBJECT_ID":"1972-065B","EPOCH":"2026-03-24T02:02:22.013664","MEAN_MOTION":14.77725823,"ECCENTRICITY":0.00329995,"INCLINATION":35.0006,"RA_OF_ASC_NODE":221.3881,"ARG_OF_PERICENTER":131.9783,"MEAN_ANOMALY":228.3736,"EPHEMERIS_TYPE":0,"CLASSIFICATION_TYPE":"U","NORAD_CAT_ID":6155,"ELEMENT_SET_NO":999,"REV_AT_EPOCH":84339,"BSTAR":0.00018465751,"MEAN_MOTION_DOT":1.334e-5,"MEAN_MOTION_DDOT":0},{"OBJECT_NAME":"SL-8 R/B","OBJECT_ID":"1975-112B","EPOCH":"2026-03-24T04:19:16.078080","MEAN_MOTION":14.38212005,"ECCENTRICITY":0.00144956,"INCLINATION":74.0635,"RA_OF_ASC_NODE":352.2589,"ARG_OF_PERICENTER":79.4609,"MEAN_ANOMALY":280.8177,"EPHEMERIS_TYPE":0,"CLASSIFICATION_TYPE":"U","NORAD_CAT_ID":8459,"ELEMENT_SET_NO":999,"REV_AT_EPOCH":63395,"BSTAR":9.2872097e-5,"MEAN_MOTION_DOT":2.56e-6,"MEAN_MOTION_DDOT":0},{"OBJECT_NAME":"SL-3 R/B","OBJECT_ID":"1977-057B","EPOCH":"2026-03-24T05:17:07.463328","MEAN_MOTION":15.45899528,"ECCENTRICITY":0.00065199,"INCLINATION":97.5797,"RA_OF_ASC_NODE":255.7864,"ARG_OF_PERICENTER":223.0226,"MEAN_ANOMALY":137.0514,"EPHEMERIS_TYPE":0,"CLASSIFICATION_TYPE":"U","NORAD_CAT_ID":10114,"ELEMENT_SET_NO":999,"REV_AT_EPOCH":67057,"BSTAR":0.00026419292,"MEAN_MOTION_DOT":0.00012762,"MEAN_MOTION_DDOT":0},{"OBJECT_NAME":"SEASAT 1","OBJECT_ID":"1978-064A","EPOCH":"2026-03-24T02:11:36.520224","MEAN_MOTION":14.46171593,"ECCENTRICITY":0.00025473,"INCLINATION":108.0082,"RA_OF_ASC_NODE":155.7185,"ARG_OF_PERICENTER":279.0901,"MEAN_ANOMALY":80.9956,"EPHEMERIS_TYPE":0,"CLASSIFICATION_TYPE":"U","NORAD_CAT_ID":10967,"ELEMENT_SET_NO":999,"REV_AT_EPOCH":50859,"BSTAR":0.00010937482,"MEAN_MOTION_DOT":2.54e-6,"MEAN_MOTION_DDOT":0},{"OBJECT_NAME":"SL-14 R/B","OBJECT_ID":"1979-011B","EPOCH":"2026-03-24T06:26:55.673088","MEAN_MOTION":14.91925742,"ECCENTRICITY":0.00163845,"INCLINATION":82.5206,"RA_OF_ASC_NODE":82.7321,"ARG_OF_PERICENTER":14.6399,"MEAN_ANOMALY":345.5292,"EPHEMERIS_TYPE":0,"CLASSIFICATION_TYPE":"U","NORAD_CAT_ID":11267,"ELEMENT_SET_NO":999,"REV_AT_EPOCH":53095,"BSTAR":5.9326955e-5,"MEAN_MOTION_DOT":6.27e-6,"MEAN_MOTION_DDOT":0}]
